CCSDS_OMM_VERS = 2.0
CREATION_DATE  = 
ORIGINATOR     = 

OBJECT_NAME    = FLOCK 4H-31
OBJECT_ID      = 2025-276BW
CENTER_NAME    = EARTH
REF_FRAME      = TEME
TIME_SYSTEM    = UTC
MEAN_ELEMENT_THEORY = SGP/SGP4

EPOCH          = 2025-12-20T03:03:13.238784
MEAN_MOTION    = 15.17180172
ECCENTRICITY   = .00024937
INCLINATION    = 97.4404
RA_OF_ASC_NODE = 65.7446
ARG_OF_PERICENTER = 291.7917
MEAN_ANOMALY   = 68.3051

EPHEMERIS_TYPE = 0
CLASSIFICATION_TYPE = U
NORAD_CAT_ID   = 66734
ELEMENT_SET_NO = 999
REV_AT_EPOCH   = 324
BSTAR          = .40317071E-3
MEAN_MOTION_DOT = .7944E-4
MEAN_MOTION_DDOT = 0

CCSDS_OMM_VERS = 2.0
CREATION_DATE  = 
ORIGINATOR     = 

OBJECT_NAME    = FLOCK 4H-32
OBJECT_ID      = 2025-276BX
CENTER_NAME    = EARTH
REF_FRAME      = TEME
TIME_SYSTEM    = UTC
MEAN_ELEMENT_THEORY = SGP/SGP4

EPOCH          = 2025-12-20T10:58:43.800096
MEAN_MOTION    = 15.17196747
ECCENTRICITY   = .0003491
INCLINATION    = 97.4437
RA_OF_ASC_NODE = 66.0858
ARG_OF_PERICENTER = 271.4212
MEAN_ANOMALY   = 88.6621

EPHEMERIS_TYPE = 0
CLASSIFICATION_TYPE = U
NORAD_CAT_ID   = 66735
ELEMENT_SET_NO = 999
REV_AT_EPOCH   = 329
BSTAR          = .32601E-3
MEAN_MOTION_DOT = .6413E-4
MEAN_MOTION_DDOT = 0

CCSDS_OMM_VERS = 2.0
CREATION_DATE  = 
ORIGINATOR     = 

OBJECT_NAME    = FLOCK 4H-33
OBJECT_ID      = 2025-276BY
CENTER_NAME    = EARTH
REF_FRAME      = TEME
TIME_SYSTEM    = UTC
MEAN_ELEMENT_THEORY = SGP/SGP4

EPOCH          = 2025-12-20T05:52:30.301824
MEAN_MOTION    = 15.18248671
ECCENTRICITY   = .0002392
INCLINATION    = 97.4437
RA_OF_ASC_NODE = 65.9108
ARG_OF_PERICENTER = 165.7910
MEAN_ANOMALY   = 194.3392

EPHEMERIS_TYPE = 0
CLASSIFICATION_TYPE = U
NORAD_CAT_ID   = 66736
ELEMENT_SET_NO = 999
REV_AT_EPOCH   = 326
BSTAR          = .35311E-3
MEAN_MOTION_DOT = .7166E-4
MEAN_MOTION_DDOT = 0

CCSDS_OMM_VERS = 2.0
CREATION_DATE  = 
ORIGINATOR     = 

OBJECT_NAME    = FLOCK 4H-34
OBJECT_ID      = 2025-276BZ
CENTER_NAME    = EARTH
REF_FRAME      = TEME
TIME_SYSTEM    = UTC
MEAN_ELEMENT_THEORY = SGP/SGP4

EPOCH          = 2025-12-20T04:19:40.967328
MEAN_MOTION    = 15.18117302
ECCENTRICITY   = .00022895
INCLINATION    = 97.4450
RA_OF_ASC_NODE = 65.8484
ARG_OF_PERICENTER = 176.3551
MEAN_ANOMALY   = 183.7701

EPHEMERIS_TYPE = 0
CLASSIFICATION_TYPE = U
NORAD_CAT_ID   = 66737
ELEMENT_SET_NO = 999
REV_AT_EPOCH   = 250
BSTAR          = .22468136E-3
MEAN_MOTION_DOT = .4517E-4
MEAN_MOTION_DDOT = 0

CCSDS_OMM_VERS = 2.0
CREATION_DATE  = 
ORIGINATOR     = 

OBJECT_NAME    = FLOCK 4H-35
OBJECT_ID      = 2025-276CA
CENTER_NAME    = EARTH
REF_FRAME      = TEME
TIME_SYSTEM    = UTC
MEAN_ELEMENT_THEORY = SGP/SGP4

EPOCH          = 2025-12-20T10:37:12.501984
MEAN_MOTION    = 15.18216013
ECCENTRICITY   = .0002207
INCLINATION    = 97.4414
RA_OF_ASC_NODE = 66.0979
ARG_OF_PERICENTER = 151.8545
MEAN_ANOMALY   = 208.2809

EPHEMERIS_TYPE = 0
CLASSIFICATION_TYPE = U
NORAD_CAT_ID   = 66738
ELEMENT_SET_NO = 999
REV_AT_EPOCH   = 258
BSTAR          = .33382E-3
MEAN_MOTION_DOT = .6764E-4
MEAN_MOTION_DDOT = 0

CCSDS_OMM_VERS = 2.0
CREATION_DATE  = 
ORIGINATOR     = 

OBJECT_NAME    = FLOCK 4H-36
OBJECT_ID      = 2025-276CB
CENTER_NAME    = EARTH
REF_FRAME      = TEME
TIME_SYSTEM    = UTC
MEAN_ELEMENT_THEORY = SGP/SGP4

EPOCH          = 2025-12-20T12:17:22.445376
MEAN_MOTION    = 15.17965028
ECCENTRICITY   = .0002165
INCLINATION    = 97.4460
RA_OF_ASC_NODE = 66.1730
ARG_OF_PERICENTER = 191.4298
MEAN_ANOMALY   = 168.6887

EPHEMERIS_TYPE = 0
CLASSIFICATION_TYPE = U
NORAD_CAT_ID   = 66739
ELEMENT_SET_NO = 999
REV_AT_EPOCH   = 330
BSTAR          = .33508E-3
MEAN_MOTION_DOT = .6741E-4
MEAN_MOTION_DDOT = 0

CCSDS_OMM_VERS = 2.0
CREATION_DATE  = 
ORIGINATOR     = 

OBJECT_NAME    = TRANSPORTER-15 CC
OBJECT_ID      = 2025-276CC
CENTER_NAME    = EARTH
REF_FRAME      = TEME
TIME_SYSTEM    = UTC
MEAN_ELEMENT_THEORY = SGP/SGP4

EPOCH          = 2025-12-20T04:28:54.145920
MEAN_MOTION    = 15.17671270
ECCENTRICITY   = .00019602
INCLINATION    = 97.4423
RA_OF_ASC_NODE = 65.8355
ARG_OF_PERICENTER = 252.4875
MEAN_ANOMALY   = 107.6144

EPHEMERIS_TYPE = 0
CLASSIFICATION_TYPE = U
NORAD_CAT_ID   = 66740
ELEMENT_SET_NO = 999
REV_AT_EPOCH   = 325
BSTAR          = .26318522E-3
MEAN_MOTION_DOT = .5235E-4
MEAN_MOTION_DDOT = 0

CCSDS_OMM_VERS = 2.0
CREATION_DATE  = 
ORIGINATOR     = 

OBJECT_NAME    = TRANSPORTER-15 CD
OBJECT_ID      = 2025-276CD
CENTER_NAME    = EARTH
REF_FRAME      = TEME
TIME_SYSTEM    = UTC
MEAN_ELEMENT_THEORY = SGP/SGP4

EPOCH          = 2025-12-20T04:30:22.113216
MEAN_MOTION    = 15.17097812
ECCENTRICITY   = .00013133
INCLINATION    = 97.4420
RA_OF_ASC_NODE = 65.8267
ARG_OF_PERICENTER = 149.7198
MEAN_ANOMALY   = 210.4111

EPHEMERIS_TYPE = 0
CLASSIFICATION_TYPE = U
NORAD_CAT_ID   = 66741
ELEMENT_SET_NO = 999
REV_AT_EPOCH   = 325
BSTAR          = -.67001812E-2
MEAN_MOTION_DOT = -.130377E-2
MEAN_MOTION_DDOT = 0

CCSDS_OMM_VERS = 2.0
CREATION_DATE  = 
ORIGINATOR     = 

OBJECT_NAME    = TRANSPORTER-15 CE
OBJECT_ID      = 2025-276CE
CENTER_NAME    = EARTH
REF_FRAME      = TEME
TIME_SYSTEM    = UTC
MEAN_ELEMENT_THEORY = SGP/SGP4

EPOCH          = 2025-12-20T10:47:51.245952
MEAN_MOTION    = 15.17673717
ECCENTRICITY   = .0001437
INCLINATION    = 97.4413
RA_OF_ASC_NODE = 66.0852
ARG_OF_PERICENTER = 196.8461
MEAN_ANOMALY   = 163.2726

EPHEMERIS_TYPE = 0
CLASSIFICATION_TYPE = U
NORAD_CAT_ID   = 66742
ELEMENT_SET_NO = 999
REV_AT_EPOCH   = 329
BSTAR          = .29145E-3
MEAN_MOTION_DOT = .5805E-4
MEAN_MOTION_DDOT = 0

CCSDS_OMM_VERS = 2.0
CREATION_DATE  = 
ORIGINATOR     = 

OBJECT_NAME    = TRANSPORTER-15 CF
OBJECT_ID      = 2025-276CF
CENTER_NAME    = EARTH
REF_FRAME      = TEME
TIME_SYSTEM    = UTC
MEAN_ELEMENT_THEORY = SGP/SGP4

EPOCH          = 2025-12-20T10:52:32.621376
MEAN_MOTION    = 15.17476695
ECCENTRICITY   = .0000378
INCLINATION    = 97.4412
RA_OF_ASC_NODE = 66.0805
ARG_OF_PERICENTER = 253.6249
MEAN_ANOMALY   = 106.4943

EPHEMERIS_TYPE = 0
CLASSIFICATION_TYPE = U
NORAD_CAT_ID   = 66743
ELEMENT_SET_NO = 999
REV_AT_EPOCH   = 329
BSTAR          = .26627E-3
MEAN_MOTION_DOT = .5267E-4
MEAN_MOTION_DDOT = 0

CCSDS_OMM_VERS = 2.0
CREATION_DATE  = 
ORIGINATOR     = 

OBJECT_NAME    = TRANSPORTER-15 CG
OBJECT_ID      = 2025-276CG
CENTER_NAME    = EARTH
REF_FRAME      = TEME
TIME_SYSTEM    = UTC
MEAN_ELEMENT_THEORY = SGP/SGP4

EPOCH          = 2025-12-20T04:34:22.806336
MEAN_MOTION    = 15.17308878
ECCENTRICITY   = .00013001
INCLINATION    = 97.4425
RA_OF_ASC_NODE = 65.8290
ARG_OF_PERICENTER = 264.2083
MEAN_ANOMALY   = 95.9003

EPHEMERIS_TYPE = 0
CLASSIFICATION_TYPE = U
NORAD_CAT_ID   = 66744
ELEMENT_SET_NO = 999
REV_AT_EPOCH   = 325
BSTAR          = .24269962E-3
MEAN_MOTION_DOT = .4771E-4
MEAN_MOTION_DDOT = 0

CCSDS_OMM_VERS = 2.0
CREATION_DATE  = 
ORIGINATOR     = 

OBJECT_NAME    = TRANSPORTER-15 CH
OBJECT_ID      = 2025-276CH
CENTER_NAME    = EARTH
REF_FRAME      = TEME
TIME_SYSTEM    = UTC
MEAN_ELEMENT_THEORY = SGP/SGP4

EPOCH          = 2025-12-20T10:52:45.939072
MEAN_MOTION    = 15.17438742
ECCENTRICITY   = .0000776
INCLINATION    = 97.4424
RA_OF_ASC_NODE = 66.0837
ARG_OF_PERICENTER = 278.8542
MEAN_ANOMALY   = 81.2603

EPHEMERIS_TYPE = 0
CLASSIFICATION_TYPE = U
NORAD_CAT_ID   = 66745
ELEMENT_SET_NO = 999
REV_AT_EPOCH   = 329
BSTAR          = .14341E-2
MEAN_MOTION_DOT = .28717E-3
MEAN_MOTION_DDOT = 0

