FLOCK 4H-31             
1 66734U 25276BW  25354.12723656  .00007944  00000+0  40317-3 0  9990
2 66734  97.4404  65.7446 0002493 291.7917  68.3051 15.17180172  3247
FLOCK 4H-32             
1 66735U 25276BX  25354.45745139  .00006413  00000+0  32601-3 0  9994
2 66735  97.4437  66.0858 0003491 271.4212  88.6621 15.17196747  3295
FLOCK 4H-33             
1 66736U 25276BY  25354.24479516  .00007166  00000+0  35311-3 0  9992
2 66736  97.4437  65.9108 0002392 165.7910 194.3392 15.18248671  3263
FLOCK 4H-34             
1 66737U 25276BZ  25354.18033527  .00004517  00000+0  22468-3 0  9990
2 66737  97.4450  65.8484 0002289 176.3551 183.7701 15.18117302  2507
FLOCK 4H-35             
1 66738U 25276CA  25354.44250581  .00006764  00000+0  33382-3 0  9994
2 66738  97.4414  66.0979 0002207 151.8545 208.2809 15.18216013  2580
FLOCK 4H-36             
1 66739U 25276CB  25354.51206534  .00006741  00000+0  33508-3 0  9997
2 66739  97.4460  66.1730 0002165 191.4298 168.6887 15.17965028  3308
TRANSPORTER-15 CC       
1 66740U 25276CC  25354.18673780  .00005235  00000+0  26319-3 0  9992
2 66740  97.4423  65.8355 0001960 252.4875 107.6144 15.17671270  3255
TRANSPORTER-15 CD       
1 66741U 25276CD  25354.18775594 -.00130377  00000+0 -67002-2 0  9990
2 66741  97.4420  65.8267 0001313 149.7198 210.4111 15.17097812  3254
TRANSPORTER-15 CE       
1 66742U 25276CE  25354.44989868  .00005805  00000+0  29145-3 0  9993
2 66742  97.4413  66.0852 0001437 196.8461 163.2726 15.17673717  3298
TRANSPORTER-15 CF       
1 66743U 25276CF  25354.45315534  .00005267  00000+0  26627-3 0  9992
2 66743  97.4412  66.0805 0000378 253.6249 106.4943 15.17476695  3291
TRANSPORTER-15 CG       
1 66744U 25276CG  25354.19054174  .00004771  00000+0  24270-3 0  9995
2 66744  97.4425  65.8290 0001300 264.2083  95.9003 15.17308878  3253
TRANSPORTER-15 CH       
1 66745U 25276CH  25354.45330948  .00028717  00000+0  14341-2 0  9994
2 66745  97.4424  66.0837 0000776 278.8542  81.2603 15.17438742  3292
